[{"OBJECT_NAME":"STARLINK-5690","OBJECT_ID":"2023-015AH","EPOCH":"2026-03-09T22:00:01.999584","MEAN_MOTION":15.14430175,"ECCENTRICITY":0.00019521,"INCLINATION":43.0002,"RA_OF_ASC_NODE":337.2039,"ARG_OF_PERICENTER":258.0458,"MEAN_ANOMALY":99.5541,"EPHEMERIS_TYPE":0,"CLASSIFICATION_TYPE":"U","NORAD_CAT_ID":55480,"ELEMENT_SET_NO":999,"REV_AT_EPOCH":577,"BSTAR":0.0026064123,"MEAN_MOTION_DOT":0.00048862,"MEAN_MOTION_DDOT":0},{"OBJECT_NAME":"OKEAN-2","OBJECT_ID":"1990-018A","EPOCH":"2026-03-09T23:36:10.183680","MEAN_MOTION":15.15649196,"ECCENTRICITY":0.00049727,"INCLINATION":82.5017,"RA_OF_ASC_NODE":331.5686,"ARG_OF_PERICENTER":303.4328,"MEAN_ANOMALY":67.9927,"EPHEMERIS_TYPE":0,"CLASSIFICATION_TYPE":"U","NORAD_CAT_ID":20510,"ELEMENT_SET_NO":999,"REV_AT_EPOCH":93903,"BSTAR":0.00028442133,"MEAN_MOTION_DOT":5.437e-5,"MEAN_MOTION_DDOT":0}]
